{"spkid": "50330072", "covariance": {"epoch": "2455165.5", "elements": [{"units": null, "value": ".4869464566374645", "title": "eccentricity", "name": "e", "sigma": 6.3669958625705e-08, "label": "e"}, {"name": "q", "sigma": 9.92578941578223e-08, "title": "perihelion distance", "value": ".8772462360815632", "units": "au", "label": "q"}, {"label": "tp", "title": "time of perihelion passage", "value": "2455527.666937642237", "units": "TDB", "name": "tp", "sigma": 5.94318743404678e-05}, {"label": "node", "value": "198.3302661884656", "title": "longitude of the ascending node", "units": "deg", "name": "om", "sigma": 7.8136178141007e-05}, {"name": "w", "sigma": 8.38688036880846e-05, "units": "deg", "title": "argument of perihelion", "value": "66.50472649798189", "label": "peri"}, {"name": "i", "sigma": 2.70560044919594e-05, "title": "inclination", "value": "3.748500633946294", "units": "deg", "label": "i"}], "data": [["4.053863631398984E-15", "-6.277753652007386E-15", "2.613167676524576E-12", "-7.246143706815347E-13", "1.481935735878751E-12", "2.175964461895195E-13"], ["-6.277753652007386E-15", "9.852129552645452E-15", "-3.67454964629647E-12", "1.147886064971972E-12", "-2.282779549640965E-12", "-3.526841479871214E-13"], ["2.613167676524576E-12", "-3.67454964629647E-12", "3.532147687621155E-9", "-1.22077961727976E-9", "2.087183584541611E-9", "2.274312201065762E-10"], ["-7.246143706815347E-13", "1.147886064971972E-12", "-1.22077961727976E-9", "6.105262334483185E-9", "-6.411433761639272E-9", "4.999012589453392E-10"], ["1.481935735878751E-12", "-2.282779549640965E-12", "2.087183584541611E-9", "-6.411433761639272E-9", "7.033976232070477E-9", "-4.306231754635276E-10"], ["2.175964461895195E-13", "-3.526841479871214E-13", "2.274312201065762E-10", "4.999012589453392E-10", "-4.306231754635276E-10", "7.320273790689283E-10"]], "labels": ["e", "q", "tp", "node", "peri", "i"]}, "elements": [{"name": "e", "sigma": "6.2657E-8", "title": "eccentricity", "value": ".4867914925251975", "units": null, "label": "e"}, {"label": "a", "value": "1.709934254687347", "title": "semi-major axis", "units": "au", "sigma": "2.5206E-8", "name": "a"}, {"label": "q", "value": ".877552806728132", "title": "perihelion distance", "units": "au", "sigma": "9.9182E-8", "name": "q"}, {"label": "i", "name": "i", "sigma": "2.7018E-5", "units": "deg", "value": "3.746296749551681", "title": "inclination; angle with respect to x-y ecliptic plane"}, {"units": "deg", "title": "longitude of the ascending node", "value": "198.0484932893181", "sigma": "7.8284E-5", "name": "om", "label": "node"}, {"title": "argument of perihelion", "value": "66.90245126549144", "units": "deg", "sigma": "8.4029E-5", "name": "w", "label": "peri"}, {"label": "M", "name": "ma", "sigma": "8.3541E-5", "units": "deg", "title": "mean anomaly", "value": "340.6156089795031"}, {"label": "tp", "sigma": ".00019048", "name": "tp", "value": "2461244.476150134951", "title": "time of perihelion passage", "units": "TDB"}, {"title": "sidereal orbital period", "value": "816.7093839492904", "units": "d", "name": "per", "sigma": "1.8059E-5", "label": "period"}, {"label": "n", "sigma": "9.7466E-9", "name": "n", "units": "deg/d", "value": ".4407932700113954", "title": "mean motion"}, {"label": "Q", "sigma": "3.7476E-8", "name": "ad", "units": "au", "title": "aphelion distance", "value": "2.542315702646561"}], "epoch": "2461200.5"}